NORAD_CAT_ID,OBJECT_NAME,OBJECT_TYPE,EPOCH,MEAN_MOTION,ECCENTRICITY,INCLINATION,RA_OF_ASC_NODE,ARG_OF_PERICENTER,MEAN_ANOMALY,BSTAR,MEAN_MOTION_DOT,MEAN_MOTION_DDOT,TLE_LINE0,TLE_LINE1,TLE_LINE2,SEMIMAJOR_AXIS,PERIOD,APOGEE,PERIGEE,DECAYED
53987.0,STARLINK-5112,PAYLOAD,2023-08-08 01:34:19,15.08850065,0.0001226,53.2155,134.8979,115.3727,244.7392,0.00036235,5.485e-05,0.0,0 STARLINK-5112,1 53987U 22125Z   23220.06550744  .00005485  00000-0  36235-3 0  9998,2 53987  53.2155 134.8979 0001226 115.3727 244.7392 15.08850065 46923,6917.85,95.437,540.563,538.866,0.0
53987.0,STARLINK-5112,PAYLOAD,2023-08-08 17:28:11,15.08857295,0.0001629,53.2156,131.9249,111.0291,249.0876,0.00064501,9.997e-05,0.0,0 STARLINK-5112,1 53987U 22125Z   23220.72790982  .00009997  00000-0  64501-3 0  9990,2 53987  53.2156 131.9249 0001629 111.0291 249.0876 15.08857295 47027,6917.828,95.436,540.819,538.566,0.0
53987.0,STARLINK-5112,PAYLOAD,2023-08-09 17:18:58,15.08843574,0.0001937,53.2142,127.4651,94.0791,266.0423,3.5935e-05,2.84e-06,0.0,0 STARLINK-5112,1 53987U 22125Z   23221.72150981  .00000284  00000-0  35935-4 0  9990,2 53987  53.2142 127.4651 0001937  94.0791 266.0423 15.08843574 47174,6917.869,95.437,541.074,538.394,0.0
53987.0,STARLINK-5112,PAYLOAD,2023-08-10 10:48:13,15.08837469,0.0001063,53.2151,124.1914,99.1652,260.946,5.38e-05,5.68e-06,0.0,0 STARLINK-5112,1 53987U 22125Z   23222.45015151  .00000568  00000-0  53800-4 0  9996,2 53987  53.2151 124.1914 0001063  99.1652 260.9460 15.08837469 47284,6917.888,95.438,540.488,539.018,0.0
53987.0,STARLINK-5112,PAYLOAD,2023-08-11 23:22:05,15.08850617,0.0001108,53.2154,117.3523,97.9387,262.1731,0.00042116,6.423e-05,0.0,0 STARLINK-5112,1 53987U 22125Z   23223.97367101  .00006423  00000-0  42116-3 0  9992,2 53987  53.2154 117.3523 0001108  97.9387 262.1731 15.08850617 47519,6917.848,95.437,540.479,538.946,0.0
53987.0,STARLINK-5112,PAYLOAD,2023-08-12 16:51:19,15.0884182,0.0001223,53.2123,114.0816,67.7434,292.3688,0.000159,2.244e-05,0.0,0 STARLINK-5112,1 53987U 22125Z   23224.70231450  .00002244  00000-0  15900-3 0  9999,2 53987  53.2123 114.0816 0001223  67.7434 292.3688 15.08841820 47624,6917.875,95.437,540.586,538.894,0.0
53987.0,STARLINK-5112,PAYLOAD,2023-08-14 02:14:25,15.08845844,0.0001106,53.2163,107.8366,94.4234,265.6884,0.00015645,2.203e-05,0.0,0 STARLINK-5112,1 53987U 22125Z   23226.09335201  .00002203  00000-0  15645-3 0  9993,2 53987  53.2163 107.8366 0001106  94.4234 265.6884 15.08845844 47837,6917.863,95.437,540.493,538.962,0.0
53987.0,STARLINK-5112,PAYLOAD,2023-08-14 22:54:26,15.08836885,0.0001104,53.2165,103.9702,97.7978,262.314,5.5546e-05,5.96e-06,0.0,0 STARLINK-5112,1 53987U 22125Z   23226.95447837  .00000596  00000-0  55546-4 0  9995,2 53987  53.2165 103.9702 0001104  97.7978 262.3140 15.08836885 47967,6917.89,95.438,540.519,538.991,0.0
53987.0,STARLINK-5112,PAYLOAD,2023-08-16 00:20:36,15.08849299,0.0001078,53.2161,99.2151,99.3711,260.7403,0.00022087,3.23e-05,0.0,0 STARLINK-5112,1 53987U 22125Z   23228.01431412  .00003230  00000-0  22087-3 0  9997,2 53987  53.2161  99.2151 0001078  99.3711 260.7403 15.08849299 48127,6917.852,95.437,540.463,538.971,0.0
53987.0,STARLINK-5112,PAYLOAD,2023-08-17 01:46:47,15.08843442,0.0001492,53.2151,94.4572,83.1549,276.9613,0.00016733,2.376e-05,0.0,0 STARLINK-5112,1 53987U 22125Z   23229.07415941  .00002376  00000-0  16733-3 0  9994,2 53987  53.2151  94.4572 0001492  83.1549 276.9613 15.08843442 48283,6917.87,95.437,540.767,538.703,0.0
53987.0,STARLINK-5112,PAYLOAD,2023-08-18 14:20:39,15.08840156,0.0001695,53.2132,87.6167,79.6493,280.469,5.1419e-05,5.3e-06,0.0,0 STARLINK-5112,1 53987U 22125Z   23230.59768111  .00000530  00000-0  51419-4 0  9994,2 53987  53.2132  87.6167 0001695  79.6493 280.4690 15.08840156 48519,6917.88,95.438,540.917,538.572,0.0
53987.0,STARLINK-5112,PAYLOAD,2023-08-19 23:43:44,15.08857055,0.0001001,53.2149,81.3724,89.184,270.9266,-0.00025574,-4.357e-05,0.0,0 STARLINK-5112,1 53987U 22125Z   23231.98871129 -.00004357  00000-0 -25574-3 0  9997,2 53987  53.2149  81.3724 0001001  89.1840 270.9266 15.08857055 48722,6917.828,95.436,540.386,539.001,0.0
53987.0,STARLINK-5112,PAYLOAD,2023-08-20 18:48:23,15.0884062,0.0001053,53.2154,77.8019,96.7315,263.3797,0.00010866,1.442e-05,0.0,0 STARLINK-5112,1 53987U 22125Z   23232.78360321  .00001442  00000-0  10866-3 0  9991,2 53987  53.2154  77.8019 0001053  96.7315 263.3797 15.08840620 48841,6917.878,95.438,540.472,539.015,0.0
53987.0,STARLINK-5112,PAYLOAD,2023-08-21 23:25:19,15.08844051,0.000102,53.2168,72.4497,86.0991,274.0118,8.9449e-05,1.136e-05,0.0,0 STARLINK-5112,1 53987U 22125Z   23233.97592133  .00001136  00000-0  89449-4 0  9995,2 53987  53.2168  72.4497 0001020  86.0991 274.0118 15.08844051 49022,6917.868,95.437,540.439,539.027,0.0
53987.0,STARLINK-5112,PAYLOAD,2023-08-24 13:25:22,15.08841,9.84e-05,53.2169,60.8523,84.4535,275.657,6.52e-05,7.5e-06,0.0,0 STARLINK-5112,1 53987U 22125Z   23236.55929009  .00000750  00000-0  65200-4 0  9998,2 53987  53.2169  60.8523 0000984  84.4535 275.6570 15.08841000 49411,6917.877,95.437,540.423,539.062,0.0
53987.0,STARLINK-5112,PAYLOAD,2023-08-24 21:22:18,15.08845891,8.28e-05,53.2168,59.3684,90.4539,269.6548,0.00014251,1.981e-05,0.0,0 STARLINK-5112,1 53987U 22125Z   23236.89048631  .00001981  00000-0  14251-3 0  9994,2 53987  53.2168  59.3684 0000828  90.4539 269.6548 15.08845891 49396,6917.862,95.437,540.3,539.155,0.0
53987.0,STARLINK-5112,PAYLOAD,2023-08-25 11:40:46,15.08836574,0.0001348,53.2168,56.6917,77.9924,282.1219,0.00018677,2.686e-05,0.0,0 STARLINK-5112,1 53987U 22125Z   23237.48665066  .00002686  00000-0  18677-3 0  9996,2 53987  53.2168  56.6917 0001348  77.9924 282.1219 15.08836574 49484,6917.891,95.438,540.688,538.823,0.0
53987.0,STARLINK-5112,PAYLOAD,2023-08-25 19:37:42,15.0883984,0.0001187,53.2179,55.2054,76.4432,283.6693,0.00013652,1.886e-05,0.0,0 STARLINK-5112,1 53987U 22125Z   23237.81785079  .00001886  00000-0  13652-3 0  9999,2 53987  53.2179  55.2054 0001187  76.4432 283.6693 15.08839840 49607,6917.881,95.438,540.567,538.925,0.0
53987.0,STARLINK-5112,PAYLOAD,2023-08-26 11:31:33,15.08845023,0.0001426,53.2182,52.2321,68.4446,291.6698,2.7729e-05,1.53e-06,0.0,0 STARLINK-5112,1 53987U 22125Z   23238.48025023  .00000153  00000-0  27729-4 0  9996,2 53987  53.2182  52.2321 0001426  68.4446 291.6698 15.08845023 49634,6917.865,95.437,540.717,538.744,0.0
53987.0,STARLINK-5112,PAYLOAD,2023-08-26 17:53:06,15.08843857,0.0001405,53.2186,51.0426,69.0812,291.033,8.7306e-06,-1.49e-06,0.0,0 STARLINK-5112,1 53987U 22125Z   23238.74521069 -.00000149  00000-0  87306-5 0  9990,2 53987  53.2186  51.0426 0001405  69.0812 291.0330 15.08843857 49676,6917.869,95.437,540.706,538.762,0.0
53987.0,STARLINK-5112,PAYLOAD,2023-08-27 17:43:53,15.08842667,0.0001155,53.2184,46.5806,84.1616,275.9508,3.7865e-05,3.15e-06,0.0,0 STARLINK-5112,1 53987U 22125Z   23239.73880806  .00000315  00000-0  37865-4 0  9995,2 53987  53.2184  46.5806 0001155  84.1616 275.9508 15.08842667 49897,6917.872,95.437,540.536,538.938,0.0
53987.0,STARLINK-5112,PAYLOAD,2023-08-28 11:13:07,15.0883676,0.0001229,53.2193,43.3102,91.4219,268.6914,2.3819e-05,9.1e-07,0.0,0 STARLINK-5112,1 53987U 22125Z   23240.46745242  .00000091  00000-0  23819-4 0  9996,2 53987  53.2193  43.3102 0001229  91.4219 268.6914 15.08836760 50005,6917.89,95.438,540.606,538.905,0.0
53987.0,STARLINK-5112,PAYLOAD,2023-08-28 17:34:40,15.08838855,0.0001196,53.219,42.1206,85.604,274.5089,3.679e-05,2.98e-06,0.0,0 STARLINK-5112,1 53987U 22125Z   23240.73241120  .00000298  00000-0  36790-4 0  9993,2 53987  53.2190  42.1206 0001196  85.6040 274.5089 15.08838855 49974,6917.884,95.438,540.576,538.922,0.0
53987.0,STARLINK-5112,PAYLOAD,2023-08-29 15:50:03,15.08843342,0.0001133,53.2183,37.9565,83.628,276.4841,7.3639e-05,8.84e-06,0.0,0 STARLINK-5112,1 53987U 22125Z   23241.65976787  .00000884  00000-0  73639-4 0  9993,2 53987  53.2183  37.9565 0001133  83.6280 276.4841 15.08843342 50180,6917.87,95.437,540.519,538.951,0.0
53987.0,STARLINK-5112,PAYLOAD,2023-08-30 14:05:28,15.0883499,0.0001055,53.2181,33.7942,79.2457,280.8654,4.2313e-05,3.86e-06,0.0,0 STARLINK-5112,1 53987U 22125Z   23242.58713475  .00000386  00000-0  42313-4 0  9991,2 53987  53.2181  33.7942 0001055  79.2457 280.8654 15.08834990 50327,6917.896,95.438,540.491,539.031,0.0
53987.0,STARLINK-5112,PAYLOAD,2023-08-30 17:16:14,15.08841532,0.0001084,53.2184,33.1989,89.6626,270.4491,5.7799e-05,6.32e-06,0.0,0 STARLINK-5112,1 53987U 22125Z   23242.71961012  .00000632  00000-0  57799-4 0  9996,2 53987  53.2184  33.1989 0001084  89.6626 270.4491 15.08841532 50278,6917.876,95.437,540.491,538.991,0.0
53987.0,STARLINK-5112,PAYLOAD,2023-08-31 10:45:29,15.08831553,0.0001156,53.2181,29.9269,88.7521,271.3604,-1.5378e-05,-5.32e-06,0.0,0 STARLINK-5112,1 53987U 22125Z   23243.44825940 -.00000532  00000-0 -15378-4 0  9994,2 53987  53.2181  29.9269 0001156  88.7521 271.3604 15.08831553 50451,6917.906,95.438,540.571,538.971,0.0
53987.0,STARLINK-5112,PAYLOAD,2023-09-01 02:39:20,15.08839204,0.0001127,53.2181,26.9531,85.3428,274.7693,-8.9459e-06,-4.3e-06,0.0,0 STARLINK-5112,1 53987U 22125Z   23244.11065536 -.00000430  00000-0 -89459-5 0  9995,2 53987  53.2181  26.9531 0001127  85.3428 274.7693 15.08839204 50554,6917.883,95.438,540.527,538.968,0.0
53987.0,STARLINK-5112,PAYLOAD,2023-09-01 10:36:16,15.08833797,0.0001285,53.2197,25.4674,91.8113,268.3026,5.629e-05,6.08e-06,0.0,0 STARLINK-5112,1 53987U 22125Z   23244.44185825  .00000608  00000-0  56290-4 0  9996,2 53987  53.2197  25.4674 0001285  91.8113 268.3026 15.08833797 50539,6917.899,95.438,540.653,538.875,0.0
53987.0,STARLINK-5112,PAYLOAD,2023-09-01 18:33:11,15.08842842,0.0001109,53.2178,23.9789,91.6783,268.4336,0.00011923,1.61e-05,0.0,0 STARLINK-5112,1 53987U 22125Z   23244.77305078  .00001610  00000-0  11923-3 0  9993,2 53987  53.2178  23.9789 0001109  91.6783 268.4336 15.08842842 50585,6917.872,95.437,540.504,538.97,0.0
